{
  "type": "FeatureCollection",
  "features": [
    {
      "type": "Feature",
      "properties": {
        "norad_id": 30860,
        "name": "FENGYUN 1C DEB",
        "group": "fengyun-1c-debris",
        "lat": -31.079098628529586,
        "lon": -119.12790020925759,
        "alt_km": 790.6504908115658,
        "timestamp": "2025-12-18T17:50:15.236049+00:00",
        "meta_object_name": "FENGYUN 1C DEB",
        "meta_object_id": "1999-025AWW",
        "meta_epoch": "2025-12-18T03:22:28.013664",
        "meta_mean_motion": 14.25535938,
        "meta_eccentricity": 0.00402655,
        "meta_inclination": 98.9058,
        "meta_ra_of_asc_node": 65.6834,
        "meta_arg_of_pericenter": 172.4545,
        "meta_mean_anomaly": 187.7249,
        "meta_ephemeris_type": 0,
        "meta_classification_type": "U",
        "meta_norad_cat_id": 30860,
        "meta_element_set_no": 999,
        "meta_rev_at_epoch": 96593,
        "meta_bstar": 0.0012657763,
        "meta_mean_motion_dot": 2.974e-05,
        "meta_mean_motion_ddot": 0,
        "tle_line1": "1 30860U 99025AWW 25352.14060201  .00002974  00000+0  12658-2 0  9998",
        "tle_line2": "2 30860  98.9058  65.6834 0040265 172.4545 187.7249 14.25535938965930"
      },
      "geometry": {
        "type": "Point",
        "coordinates": [
          -119.12790020925759,
          -31.079098628529586
        ]
      }
    },
    {
      "type": "Feature",
      "properties": {
        "norad_id": 30862,
        "name": "FENGYUN 1C DEB",
        "group": "fengyun-1c-debris",
        "lat": 30.971606200602594,
        "lon": 78.37961174999593,
        "alt_km": 761.628352722777,
        "timestamp": "2025-12-18T17:50:15.236059+00:00",
        "meta_object_name": "FENGYUN 1C DEB",
        "meta_object_id": "1999-025AWY",
        "meta_epoch": "2025-12-17T05:13:21.995616",
        "meta_mean_motion": 14.43167905,
        "meta_eccentricity": 0.00522868,
        "meta_inclination": 98.9603,
        "meta_ra_of_asc_node": 82.2098,
        "meta_arg_of_pericenter": 150.6942,
        "meta_mean_anomaly": 239.608,
        "meta_ephemeris_type": 0,
        "meta_classification_type": "U",
        "meta_norad_cat_id": 30862,
        "meta_element_set_no": 999,
        "meta_rev_at_epoch": 96784,
        "meta_bstar": 0.0025604626,
        "meta_mean_motion_dot": 8.708e-05,
        "meta_mean_motion_ddot": 0,
        "tle_line1": "1 30862U 99025AWY 25351.21761569  .00008708  00000+0  25605-2 0  9999",
        "tle_line2": "2 30862  98.9603  82.2098 0052286 150.6942 239.6080 14.43167905967847"
      },
      "geometry": {
        "type": "Point",
        "coordinates": [
          78.37961174999593,
          30.971606200602594
        ]
      }
    },
    {
      "type": "Feature",
      "properties": {
        "norad_id": 30863,
        "name": "FENGYUN 1C DEB",
        "group": "fengyun-1c-debris",
        "lat": -68.12610845194851,
        "lon": -21.19033981775731,
        "alt_km": 832.8420738980094,
        "timestamp": "2025-12-18T17:50:15.236069+00:00",
        "meta_object_name": "FENGYUN 1C DEB",
        "meta_object_id": "1999-025AWZ",
        "meta_epoch": "2025-12-17T23:59:19.074048",
        "meta_mean_motion": 12.40532434,
        "meta_eccentricity": 0.08776731,
        "meta_inclination": 99.1197,
        "meta_ra_of_asc_node": 181.8242,
        "meta_arg_of_pericenter": 239.3323,
        "meta_mean_anomaly": 288.8971,
        "meta_ephemeris_type": 0,
        "meta_classification_type": "U",
        "meta_norad_cat_id": 30863,
        "meta_element_set_no": 999,
        "meta_rev_at_epoch": 59805,
        "meta_bstar": 0.0033089193,
        "meta_mean_motion_dot": 1.708e-05,
        "meta_mean_motion_ddot": 0,
        "tle_line1": "1 30863U 99025AWZ 25351.99952632  .00001708  00000+0  33089-2 0  9996",
        "tle_line2": "2 30863  99.1197 181.8242 0877673 239.3323 288.8971 12.40532434598055"
      },
      "geometry": {
        "type": "Point",
        "coordinates": [
          -21.19033981775731,
          -68.12610845194851
        ]
      }
    },
    {
      "type": "Feature",
      "properties": {
        "norad_id": 30867,
        "name": "FENGYUN 1C DEB",
        "group": "fengyun-1c-debris",
        "lat": -30.40015074917178,
        "lon": -96.34884850370666,
        "alt_km": 765.8000200822216,
        "timestamp": "2025-12-18T17:50:15.236079+00:00",
        "meta_object_name": "FENGYUN 1C DEB",
        "meta_object_id": "1999-025AXD",
        "meta_epoch": "2025-12-18T05:14:29.791968",
        "meta_mean_motion": 14.28057797,
        "meta_eccentricity": 0.00540947,
        "meta_inclination": 97.8775,
        "meta_ra_of_asc_node": 258.5183,
        "meta_arg_of_pericenter": 339.8314,
        "meta_mean_anomaly": 173.0495,
        "meta_ephemeris_type": 0,
        "meta_classification_type": "U",
        "meta_norad_cat_id": 30867,
        "meta_element_set_no": 999,
        "meta_rev_at_epoch": 96615,
        "meta_bstar": 0.0020025766,
        "meta_mean_motion_dot": 5.016e-05,
        "meta_mean_motion_ddot": 0,
        "tle_line1": "1 30867U 99025AXD 25352.21840037  .00005016  00000+0  20026-2 0  9994",
        "tle_line2": "2 30867  97.8775 258.5183 0054094 339.8314 173.0495 14.28057797966150"
      },
      "geometry": {
        "type": "Point",
        "coordinates": [
          -96.34884850370666,
          -30.40015074917178
        ]
      }
    },
    {
      "type": "Feature",
      "properties": {
        "norad_id": 30868,
        "name": "FENGYUN 1C DEB",
        "group": "fengyun-1c-debris",
        "lat": 20.16972582101761,
        "lon": 53.36483141541646,
        "alt_km": 775.9618246615237,
        "timestamp": "2025-12-18T17:50:15.236089+00:00",
        "meta_object_name": "FENGYUN 1C DEB",
        "meta_object_id": "1999-025AXE",
        "meta_epoch": "2025-12-16T11:13:11.203392",
        "meta_mean_motion": 14.11122196,
        "meta_eccentricity": 0.0135335,
        "meta_inclination": 98.2632,
        "meta_ra_of_asc_node": 228.2096,
        "meta_arg_of_pericenter": 202.1695,
        "meta_mean_anomaly": 283.9237,
        "meta_ephemeris_type": 0,
        "meta_classification_type": "U",
        "meta_norad_cat_id": 30868,
        "meta_element_set_no": 999,
        "meta_rev_at_epoch": 96763,
        "meta_bstar": 0.00014364777,
        "meta_mean_motion_dot": 2.43e-06,
        "meta_mean_motion_ddot": 0,
        "tle_line1": "1 30868U 99025AXE 25350.46749078  .00000243  00000+0  14365-3 0  9990",
        "tle_line2": "2 30868  98.2632 228.2096 0135335 202.1695 283.9237 14.11122196967634"
      },
      "geometry": {
        "type": "Point",
        "coordinates": [
          53.36483141541646,
          20.16972582101761
        ]
      }
    },
    {
      "type": "Feature",
      "properties": {
        "norad_id": 30872,
        "name": "FENGYUN 1C DEB",
        "group": "fengyun-1c-debris",
        "lat": -39.72897169819642,
        "lon": -142.1909567904346,
        "alt_km": 792.0171953522604,
        "timestamp": "2025-12-18T17:50:15.236099+00:00",
        "meta_object_name": "FENGYUN 1C DEB",
        "meta_object_id": "1999-025AXJ",
        "meta_epoch": "2025-12-17T14:50:15.681984",
        "meta_mean_motion": 14.39449543,
        "meta_eccentricity": 0.00405931,
        "meta_inclination": 99.1928,
        "meta_ra_of_asc_node": 44.338,
        "meta_arg_of_pericenter": 14.3249,
        "meta_mean_anomaly": 139.7018,
        "meta_ephemeris_type": 0,
        "meta_classification_type": "U",
        "meta_norad_cat_id": 30872,
        "meta_element_set_no": 999,
        "meta_rev_at_epoch": 97806,
        "meta_bstar": 0.00065397425,
        "meta_mean_motion_dot": 2.007e-05,
        "meta_mean_motion_ddot": 0,
        "tle_line1": "1 30872U 99025AXJ 25351.61823706  .00002007  00000+0  65397-3 0  9995",
        "tle_line2": "2 30872  99.1928  44.3380 0040593  14.3249 139.7018 14.39449543978061"
      },
      "geometry": {
        "type": "Point",
        "coordinates": [
          -142.1909567904346,
          -39.72897169819642
        ]
      }
    },
    {
      "type": "Feature",
      "properties": {
        "norad_id": 30873,
        "name": "FENGYUN 1C DEB",
        "group": "fengyun-1c-debris",
        "lat": 66.69282234506404,
        "lon": -27.711596880962198,
        "alt_km": 893.0661942715733,
        "timestamp": "2025-12-18T17:50:15.236109+00:00",
        "meta_object_name": "FENGYUN 1C DEB",
        "meta_object_id": "1999-025AXK",
        "meta_epoch": "2025-12-18T05:40:07.520160",
        "meta_mean_motion": 14.19143201,
        "meta_eccentricity": 0.01076955,
        "meta_inclination": 98.6117,
        "meta_ra_of_asc_node": 352.3902,
        "meta_arg_of_pericenter": 272.7266,
        "meta_mean_anomaly": 86.1588,
        "meta_ephemeris_type": 0,
        "meta_classification_type": "U",
        "meta_norad_cat_id": 30873,
        "meta_element_set_no": 999,
        "meta_rev_at_epoch": 97270,
        "meta_bstar": 0.00018085309,
        "meta_mean_motion_dot": 3.57e-06,
        "meta_mean_motion_ddot": 0,
        "tle_line1": "1 30873U 99025AXK 25352.23619815  .00000357  00000+0  18085-3 0  9997",
        "tle_line2": "2 30873  98.6117 352.3902 0107695 272.7266  86.1588 14.19143201972706"
      },
      "geometry": {
        "type": "Point",
        "coordinates": [
          -27.711596880962198,
          66.69282234506404
        ]
      }
    }
  ]
}